[{"OBJECT_NAME":"YUNHAI-2 01D","OBJECT_ID":"2018-112D","EPOCH":"2026-03-09T23:06:26.804736","MEAN_MOTION":14.28986233,"ECCENTRICITY":0.00157828,"INCLINATION":50.0122,"RA_OF_ASC_NODE":348.6213,"ARG_OF_PERICENTER":356.8631,"MEAN_ANOMALY":3.2183,"EPHEMERIS_TYPE":0,"CLASSIFICATION_TYPE":"U","NORAD_CAT_ID":43912,"ELEMENT_SET_NO":999,"REV_AT_EPOCH":37339,"BSTAR":0.00013763161,"MEAN_MOTION_DOT":1.89e-6,"MEAN_MOTION_DDOT":0},{"OBJECT_NAME":"NOAA 12 DEB","OBJECT_ID":"1991-032G","EPOCH":"2026-03-09T04:47:15.600768","MEAN_MOTION":14.30871297,"ECCENTRICITY":0.00036423,"INCLINATION":98.5167,"RA_OF_ASC_NODE":55.7806,"ARG_OF_PERICENTER":287.1553,"MEAN_ANOMALY":72.9231,"EPHEMERIS_TYPE":0,"CLASSIFICATION_TYPE":"U","NORAD_CAT_ID":38547,"ELEMENT_SET_NO":999,"REV_AT_EPOCH":74891,"BSTAR":0.00017563069,"MEAN_MOTION_DOT":4.18e-6,"MEAN_MOTION_DDOT":0}]
